NORAD_CAT_ID,OBJECT_NAME,OBJECT_TYPE,EPOCH,MEAN_MOTION,ECCENTRICITY,INCLINATION,RA_OF_ASC_NODE,ARG_OF_PERICENTER,MEAN_ANOMALY,BSTAR,MEAN_MOTION_DOT,MEAN_MOTION_DDOT,TLE_LINE0,TLE_LINE1,TLE_LINE2,SEMIMAJOR_AXIS,PERIOD,APOGEE,PERIGEE,DECAYED
53431.0,STARLINK-4548,PAYLOAD,2022-08-15 18:00:00,15.85858698,0.0020045,53.2175,220.7488,52.8043,16.9617,-0.0051229,-0.01152435,0.0,0 STARLINK-4548,1 53431U 22097AV  22227.75001157 -.01152435  00000-0 -51229-2 0  9991,2 53431  53.2175 220.7488 0020045  52.8043  16.9617 15.85858698  1302,6692.045,90.803,327.324,300.496,0.0
53431.0,STARLINK-4548,PAYLOAD,2022-08-16 06:00:02,15.8456394,0.0015025,53.2175,218.2315,49.7639,355.121,-0.0055578999999999,-0.01160754,0.0,0 STARLINK-4548,1 53431U 22097AV  22228.25002315 -.01160754  00000-0 -55579-2 0  9999,2 53431  53.2175 218.2315 0015025  49.7639 355.1210 15.84563940  1377,6695.69,90.877,327.615,307.495,0.0
53431.0,STARLINK-4548,PAYLOAD,2022-08-16 14:00:01,15.83702825,0.0011575,53.2173,216.5545,48.5192,98.3649,-0.0058765,-0.011914,0.0,0 STARLINK-4548,1 53431U 22097AV  22228.58334491 -.01191400  00000-0 -58765-2 0  9990,2 53431  53.2173 216.5545 0011575  48.5192  98.3649 15.83702825  1309,6698.1169999999975,90.926,327.735,312.2290000000001,0.0
53431.0,STARLINK-4548,PAYLOAD,2022-08-16 22:00:00,15.82857702,0.0009003,53.2173,214.8787,45.6785,202.2225,-0.006353,-0.01228493,0.0,0 STARLINK-4548,1 53431U 22097AV  22228.91667824 -.01228493  00000-0 -63530-2 0  9995,2 53431  53.2173 214.8787 0009003  45.6785 202.2225 15.82857702  1307,6700.501,90.975,328.398,316.333,0.0
53431.0,STARLINK-4548,PAYLOAD,2022-08-17 14:00:01,15.81097161,0.0004273,53.2173,211.5381,17.6816,69.1463,-0.0066543999999999,-0.01184346,0.0,0 STARLINK-4548,1 53431U 22097AV  22229.58334491 -.01184346  00000-0 -66544-2 0  9996,2 53431  53.2173 211.5381 0004273  17.6816  69.1463 15.81097161  1307,6705.474,91.076,330.204,324.474,0.0
53431.0,STARLINK-4548,PAYLOAD,2022-08-18 08:00:01,15.79138179,0.0003306,53.2182,207.7893,357.6441,37.9839,-0.0072459,-0.01177871,0.0,0 STARLINK-4548,1 53431U 22097AV  22230.33334491 -.01177871  00000-0 -72459-2 0  9998,2 53431  53.2182 207.7893 0003306 357.6441  37.9839 15.79138179  1705,6711.018,91.189,335.102,330.665,0.0
53431.0,STARLINK-4548,PAYLOAD,2022-08-18 14:00:01,15.78505464,0.0003313,53.2175,206.5408,349.1252,28.253,-0.0076221,-0.01200851,0.0,0 STARLINK-4548,1 53431U 22097AV  22230.58334491 -.01200851  00000-0 -76221-2 0  9991,2 53431  53.2175 206.5408 0003313 349.1252  28.2530 15.78505464  1301,6712.811,91.226,336.9,332.452,0.0
53431.0,STARLINK-4548,PAYLOAD,2022-08-18 22:00:00,15.77632327,0.0003531,53.2175,204.878,4.7284,107.4183,-0.007869,-0.01192784,0.0,0 STARLINK-4548,1 53431U 22097AV  22230.91667824 -.01192784  00000-0 -78690-2 0  9994,2 53431  53.2175 204.8780 0003531   4.7284 107.4183 15.77632327  1308,6715.288000000001,91.276,339.524,334.782,0.0
53431.0,STARLINK-4548,PAYLOAD,2022-08-19 14:00:01,15.75894566,8.540000000000003e-05,53.2174,201.5626,29.9162,268.6339,-0.0084855,-0.01188758,0.0,0 STARLINK-4548,1 53431U 22097AV  22231.58334491 -.01188758  00000-0 -84855-2 0  9995,2 53431  53.2174 201.5626 0000854  29.9162 268.6339 15.75894566  1305,6720.224,91.377,342.663,341.515,0.0
53431.0,STARLINK-4548,PAYLOAD,2022-08-19 16:00:00,15.75680869,0.0001115,53.2176,201.1482,30.9281,20.6274,-0.0086066,-0.01193842,0.0,0 STARLINK-4548,1 53431U 22097AV  22231.66667824 -.01193842  00000-0 -86066-2 0  9999,2 53431  53.2176 201.1482 0001115  30.9281  20.6274 15.75680869  1918,6720.831,91.389,343.446,341.94699999999995,0.0
53431.0,STARLINK-4548,PAYLOAD,2022-08-19 22:00:00,15.75029113,0.0001301,53.2177,199.9065,44.3222,345.8632,-0.0088422999999999,-0.01192059,0.0,0 STARLINK-4548,1 53431U 22097AV  22231.91667824 -.01192059  00000-0 -88423-2 0  9995,2 53431  53.2177 199.9065 0001301  44.3222 345.8632 15.75029113  1303,6722.685,91.427,345.425,343.676,0.0
53431.0,STARLINK-4548,PAYLOAD,2022-08-20 14:00:01,15.73286737,0.000145,53.2173,196.6037,50.0807,160.2928,-0.00096477,-0.00134378,0.0,0 STARLINK-4548,1 53431U 22097AV  22232.58334491 -.00134378  00000-0 -96477-3 0  9998,2 53431  53.2173 196.6037 0001450  50.0807 160.2928 15.73286737  2066,6727.648,91.528,350.48800000000006,348.537,0.0
53431.0,STARLINK-4548,PAYLOAD,2022-08-20 22:00:00,15.7320388,0.0001234,53.2175,194.9532,60.552,238.7945,1.4045e-05,1.352e-05,0.0,0 STARLINK-4548,1 53431U 22097AV  22232.91667824  .00001352  00000-0  14045-4 0  9999,2 53431  53.2175 194.9532 0001234  60.5520 238.7945 15.73203880  2111,6727.884,91.533,350.579,348.9190000000001,0.0
53431.0,STARLINK-4548,PAYLOAD,2022-08-21 06:00:00,15.73204644,8.540000000000003e-05,53.2196,193.3084,41.2181,346.9318,0.00034573,0.00048189,0.0,0 STARLINK-4548,1 53431U 22097AV  22233.25001157  .00048189  00000-0  34573-3 0  9994,2 53431  53.2196 193.3084 0000854  41.2181 346.9318 15.73204644  2165,6727.882,91.533,350.321,349.172,0.0
53431.0,STARLINK-4548,PAYLOAD,2022-08-21 14:00:01,15.7330198,8.37e-05,53.2197,191.6576,47.4725,69.6417,-0.00064437,-0.00090474,0.0,0 STARLINK-4548,1 53431U 22097AV  22233.58334491 -.00090474  00000-0 -64437-3 0  9998,2 53431  53.2197 191.6576 0000837  47.4725  69.6417 15.73301980  1301,6727.604,91.527,350.033,348.906,0.0
53431.0,STARLINK-4548,PAYLOAD,2022-08-21 22:00:00,15.73251115,0.0001022999999999,53.22,190.0075,66.4952,139.6173,-0.000218,-0.00031167,0.0,0 STARLINK-4548,1 53431U 22097AV  22233.91667824 -.00031167  00000-0 -21800-3 0  9995,2 53431  53.2200 190.0075 0001023  66.4952 139.6173 15.73251115  1305,6727.749,91.53,350.30300000000005,348.926,0.0
53431.0,STARLINK-4548,PAYLOAD,2022-08-22 12:00:00,15.73220325,0.0001252999999999,53.2191,187.122,61.4678,210.3006,8.9566e-06,6.38e-06,0.0,0 STARLINK-4548,1 53431U 22097AV  22234.50001157  .00000638  00000-0  89566-5 0  9994,2 53431  53.2191 187.1220 0001253  61.4678 210.3006 15.73220325  1309,6727.837,91.532,350.545,348.8590000000001,0.0
53431.0,STARLINK-4548,PAYLOAD,2022-08-22 22:00:00,15.73254124,0.0001339,53.2197,185.0595,73.757,39.1779,-0.00060418,-0.00084759,0.0,0 STARLINK-4548,1 53431U 22097AV  22234.91667824 -.00084759  00000-0 -60418-3 0  9999,2 53431  53.2197 185.0595 0001339  73.7570  39.1779 15.73254124  1307,6727.741,91.53,350.50699999999995,348.705,0.0
53431.0,STARLINK-4548,PAYLOAD,2022-08-23 06:00:00,15.73168611,0.0001476,53.2199,183.4121,65.0605,136.8517,0.00043643,0.00060993,0.0,0 STARLINK-4548,1 53431U 22097AV  22235.25001157  .00060993  00000-0  43643-3 0  9991,2 53431  53.2199 183.4121 0001476  65.0605 136.8517 15.73168611  2481,6727.985,91.535,350.843,348.857,0.0
53431.0,STARLINK-4548,PAYLOAD,2022-08-23 14:00:01,15.73219318,0.0001291999999999,53.2201,181.7611,69.882,220.9462,-0.00060627,-0.00084921,0.0,0 STARLINK-4548,1 53431U 22097AV  22235.58334491 -.00084921  00000-0 -60627-3 0  9997,2 53431  53.2201 181.7611 0001292  69.8820 220.9462 15.73219318  2538,6727.84,91.532,350.574,348.836,0.0
53431.0,STARLINK-4548,PAYLOAD,2022-08-23 20:00:01,15.73203182,0.0001656,53.2175,180.5193,74.1935,193.3284,2.0895e-05,2.313e-05,0.0,0 STARLINK-4548,1 53431U 22097AV  22235.83334491  .00002313  00000-0  20895-4 0  9992,2 53431  53.2175 180.5193 0001656  74.1935 193.3284 15.73203182  2571,6727.886,91.533,350.865,348.63699999999994,0.0
53431.0,STARLINK-4548,PAYLOAD,2022-08-23 22:00:01,15.73204965,0.0001686,53.2177,180.1075,73.2453,306.5749,-5.7962e-06,-1.434e-05,0.0,0 STARLINK-4548,1 53431U 22097AV  22235.91668981 -.00001434  00000-0 -57962-5 0  9996,2 53431  53.2177 180.1075 0001686  73.2453 306.5749 15.73204965  1300,6727.880999999999,91.533,350.88,348.612,0.0
53431.0,STARLINK-4548,PAYLOAD,2022-08-24 06:00:00,15.73192904,0.0001394,53.2202,178.4639,63.1119,45.651,0.00014882,0.0002031,0.0,0 STARLINK-4548,1 53431U 22097AV  22236.25001157  .00020310  00000-0  14882-3 0  9994,2 53431  53.2202 178.4639 0001394  63.1119  45.6510 15.73192904  2642,6727.915,91.534,350.718,348.843,0.0
53431.0,STARLINK-4548,PAYLOAD,2022-08-24 14:00:01,15.73207816,0.0001264,53.2201,176.8128,70.1678,127.5274,8.4801e-05,0.00011301,0.0,0 STARLINK-4548,1 53431U 22097AV  22236.58334491  .00011301  00000-0  84801-4 0  9999,2 53431  53.2201 176.8128 0001264  70.1678 127.5274 15.73207816  1308,6727.873000000001,91.533,350.588,348.88699999999994,0.0
53431.0,STARLINK-4548,PAYLOAD,2022-08-24 22:00:00,15.73260599,0.0001375999999999,53.2204,175.1636,77.5419,209.0997,-0.00067124,-0.00094021,0.0,0 STARLINK-4548,1 53431U 22097AV  22236.91667824 -.00094021  00000-0 -67124-3 0  9995,2 53431  53.2204 175.1636 0001376  77.5419 209.0997 15.73260599  1300,6727.722,91.53,350.51300000000015,348.662,0.0
53431.0,STARLINK-4548,PAYLOAD,2022-08-25 06:00:02,15.73003331,0.0001367,53.218,173.5122,82.5864,293.0865,0.0020675999999999,0.0029756,0.0,0 STARLINK-4548,1 53431U 22097AV  22237.25002315  .00297560  00000-0  20676-2 0  9992,2 53431  53.2180 173.5122 0001367  82.5864 293.0865 15.73003331  2795,6728.456,91.545,351.241,349.401,0.0
53431.0,STARLINK-4548,PAYLOAD,2022-08-25 14:00:01,15.73208318,0.000138,53.2209,171.8649,75.3992,29.1227,0.00020694,0.00028531,0.0,0 STARLINK-4548,1 53431U 22097AV  22237.58334491  .00028531  00000-0  20694-3 0  9992,2 53431  53.2209 171.8649 0001380  75.3992  29.1227 15.73208318  1307,6727.871,91.533,350.665,348.80800000000005,0.0
53431.0,STARLINK-4548,PAYLOAD,2022-08-25 22:00:00,15.73258891,0.0001392,53.2209,170.2156,76.5001,116.9686,-0.00063803,-0.00089442,0.0,0 STARLINK-4548,1 53431U 22097AV  22237.91667824 -.00089442  00000-0 -63803-3 0  9997,2 53431  53.2209 170.2156 0001392  76.5001 116.9686 15.73258891  2902,6727.727,91.53,350.529,348.656,0.0
53431.0,STARLINK-4548,PAYLOAD,2022-08-26 06:00:00,15.73172967,0.000133,53.2201,168.5681,63.7832,218.6532,0.00053035,0.00074386,0.0,0 STARLINK-4548,1 53431U 22097AV  22238.25001157  .00074386  00000-0  53035-3 0  9991,2 53431  53.2201 168.5681 0001330  63.7832 218.6532 15.73172967  2953,6727.972,91.535,350.732,348.94199999999995,0.0
